{
  "type": "FeatureCollection",
  "features": [
    {
      "type": "Feature",
      "properties": {
        "norad_id": 36558,
        "name": "COSMOS 2251 DEB",
        "group": "cosmos-2251-debris",
        "lat": 24.580318882380904,
        "lon": -18.927595664056085,
        "alt_km": 709.4382613375774,
        "timestamp": "2025-12-05T07:38:19.242757+00:00",
        "meta_object_name": "COSMOS 2251 DEB",
        "meta_object_id": "1993-036BDU",
        "meta_epoch": "2025-12-04T06:10:59.117952",
        "meta_mean_motion": 14.55263226,
        "meta_eccentricity": 0.0013164,
        "meta_inclination": 74.0418,
        "meta_ra_of_asc_node": 170.6004,
        "meta_arg_of_pericenter": 258.9437,
        "meta_mean_anomaly": 101.0246,
        "meta_ephemeris_type": 0,
        "meta_classification_type": "U",
        "meta_norad_cat_id": 36558,
        "meta_element_set_no": 999,
        "meta_rev_at_epoch": 85145,
        "meta_bstar": 0.0017175,
        "meta_mean_motion_dot": 7.427e-05,
        "meta_mean_motion_ddot": 0,
        "tle_line1": "1 36558U 93036BDU 25338.25762868  .00007427  00000+0  17175-2 0  9995",
        "tle_line2": "2 36558  74.0418 170.6004 0013164 258.9437 101.0246 14.55263226851457"
      },
      "geometry": {
        "type": "Point",
        "coordinates": [
          -18.927595664056085,
          24.580318882380904
        ]
      }
    },
    {
      "type": "Feature",
      "properties": {
        "norad_id": 36559,
        "name": "COSMOS 2251 DEB",
        "group": "cosmos-2251-debris",
        "lat": 21.684838576855917,
        "lon": -164.00109798766823,
        "alt_km": 937.1129752103643,
        "timestamp": "2025-12-05T07:38:19.242767+00:00",
        "meta_object_name": "COSMOS 2251 DEB",
        "meta_object_id": "1993-036BDV",
        "meta_epoch": "2025-12-03T03:17:00.548160",
        "meta_mean_motion": 13.95062123,
        "meta_eccentricity": 0.02603187,
        "meta_inclination": 74.1298,
        "meta_ra_of_asc_node": 26.2197,
        "meta_arg_of_pericenter": 61.9669,
        "meta_mean_anomaly": 300.7529,
        "meta_ephemeris_type": 0,
        "meta_classification_type": "U",
        "meta_norad_cat_id": 36559,
        "meta_element_set_no": 999,
        "meta_rev_at_epoch": 80960,
        "meta_bstar": 0.0032733881,
        "meta_mean_motion_dot": 5.835e-05,
        "meta_mean_motion_ddot": 0,
        "tle_line1": "1 36559U 93036BDV 25337.13681190  .00005835  00000+0  32734-2 0  9999",
        "tle_line2": "2 36559  74.1298  26.2197 0260318  61.9669 300.7529 13.95062123809606"
      },
      "geometry": {
        "type": "Point",
        "coordinates": [
          -164.00109798766823,
          21.684838576855917
        ]
      }
    },
    {
      "type": "Feature",
      "properties": {
        "norad_id": 36614,
        "name": "COSMOS 2251 DEB",
        "group": "cosmos-2251-debris",
        "lat": 39.179461536610376,
        "lon": -157.73313434654452,
        "alt_km": 698.7138425142393,
        "timestamp": "2025-12-05T07:38:19.242777+00:00",
        "meta_object_name": "COSMOS 2251 DEB",
        "meta_object_id": "1993-036BEC",
        "meta_epoch": "2025-12-03T20:55:07.059072",
        "meta_mean_motion": 14.60089968,
        "meta_eccentricity": 0.0016551,
        "meta_inclination": 74.0216,
        "meta_ra_of_asc_node": 191.525,
        "meta_arg_of_pericenter": 261.9036,
        "meta_mean_anomaly": 98.0252,
        "meta_ephemeris_type": 0,
        "meta_classification_type": "U",
        "meta_norad_cat_id": 36614,
        "meta_element_set_no": 999,
        "meta_rev_at_epoch": 65483,
        "meta_bstar": 0.0023551,
        "meta_mean_motion_dot": 0.00011335,
        "meta_mean_motion_ddot": 0,
        "tle_line1": "1 36614U 93036BEC 25337.87160948  .00011335  00000+0  23551-2 0  9994",
        "tle_line2": "2 36614  74.0216 191.5250 0016551 261.9036  98.0252 14.60089968654833"
      },
      "geometry": {
        "type": "Point",
        "coordinates": [
          -157.73313434654452,
          39.179461536610376
        ]
      }
    },
    {
      "type": "Feature",
      "properties": {
        "norad_id": 36622,
        "name": "COSMOS 2251 DEB",
        "group": "cosmos-2251-debris",
        "lat": 38.672052538289904,
        "lon": 173.29316312978924,
        "alt_km": 649.6669528623488,
        "timestamp": "2025-12-05T07:38:19.242787+00:00",
        "meta_object_name": "COSMOS 2251 DEB",
        "meta_object_id": "1993-036BEL",
        "meta_epoch": "2025-12-03T05:01:52.297248",
        "meta_mean_motion": 14.76062801,
        "meta_eccentricity": 0.0068651,
        "meta_inclination": 74.0123,
        "meta_ra_of_asc_node": 164.1599,
        "meta_arg_of_pericenter": 301.4502,
        "meta_mean_anomaly": 57.9972,
        "meta_ephemeris_type": 0,
        "meta_classification_type": "U",
        "meta_norad_cat_id": 36622,
        "meta_element_set_no": 999,
        "meta_rev_at_epoch": 66609,
        "meta_bstar": 0.00094596509,
        "meta_mean_motion_dot": 6.75e-05,
        "meta_mean_motion_ddot": 0,
        "tle_line1": "1 36622U 93036BEL 25337.20963307  .00006750  00000+0  94597-3 0  9994",
        "tle_line2": "2 36622  74.0123 164.1599 0068651 301.4502  57.9972 14.76062801666095"
      },
      "geometry": {
        "type": "Point",
        "coordinates": [
          173.29316312978924,
          38.672052538289904
        ]
      }
    },
    {
      "type": "Feature",
      "properties": {
        "norad_id": 36632,
        "name": "COSMOS 2251 DEB",
        "group": "cosmos-2251-debris",
        "lat": 2.2268486734589525,
        "lon": -53.17679960580059,
        "alt_km": 737.2482524197994,
        "timestamp": "2025-12-05T07:38:19.242797+00:00",
        "meta_object_name": "COSMOS 2251 DEB",
        "meta_object_id": "1993-036BEW",
        "meta_epoch": "2025-12-02T14:44:27.820896",
        "meta_mean_motion": 14.43079898,
        "meta_eccentricity": 0.00315122,
        "meta_inclination": 74.0016,
        "meta_ra_of_asc_node": 311.214,
        "meta_arg_of_pericenter": 61.7706,
        "meta_mean_anomaly": 298.6626,
        "meta_ephemeris_type": 0,
        "meta_classification_type": "U",
        "meta_norad_cat_id": 36632,
        "meta_element_set_no": 999,
        "meta_rev_at_epoch": 65069,
        "meta_bstar": 0.0010615143,
        "meta_mean_motion_dot": 3.557e-05,
        "meta_mean_motion_ddot": 0,
        "tle_line1": "1 36632U 93036BEW 25336.61421089  .00003557  00000+0  10615-2 0  9995",
        "tle_line2": "2 36632  74.0016 311.2140 0031512  61.7706 298.6626 14.43079898650699"
      },
      "geometry": {
        "type": "Point",
        "coordinates": [
          -53.17679960580059,
          2.2268486734589525
        ]
      }
    },
    {
      "type": "Feature",
      "properties": {
        "norad_id": 37084,
        "name": "COSMOS 2251 DEB",
        "group": "cosmos-2251-debris",
        "lat": -72.46946442786135,
        "lon": 61.62611061937436,
        "alt_km": 503.40865774386475,
        "timestamp": "2025-12-05T07:38:19.242807+00:00",
        "meta_object_name": "COSMOS 2251 DEB",
        "meta_object_id": "1993-036BFE",
        "meta_epoch": "2025-12-01T06:28:31.045728",
        "meta_mean_motion": 15.00732489,
        "meta_eccentricity": 0.0098181,
        "meta_inclination": 74.0271,
        "meta_ra_of_asc_node": 184.8055,
        "meta_arg_of_pericenter": 268.0487,
        "meta_mean_anomaly": 90.9454,
        "meta_ephemeris_type": 0,
        "meta_classification_type": "U",
        "meta_norad_cat_id": 37084,
        "meta_element_set_no": 999,
        "meta_rev_at_epoch": 66095,
        "meta_bstar": 0.00060454,
        "meta_mean_motion_dot": 8.458e-05,
        "meta_mean_motion_ddot": 0,
        "tle_line1": "1 37084U 93036BFE 25335.26980377  .00008458  00000+0  60454-3 0  9999",
        "tle_line2": "2 37084  74.0271 184.8055 0098181 268.0487  90.9454 15.00732489660954"
      },
      "geometry": {
        "type": "Point",
        "coordinates": [
          61.62611061937436,
          -72.46946442786135
        ]
      }
    },
    {
      "type": "Feature",
      "properties": {
        "norad_id": 37085,
        "name": "COSMOS 2251 DEB",
        "group": "cosmos-2251-debris",
        "lat": -27.925558389167723,
        "lon": -136.59333806816372,
        "alt_km": 455.55924029658763,
        "timestamp": "2025-12-05T07:38:19.242817+00:00",
        "meta_object_name": "COSMOS 2251 DEB",
        "meta_object_id": "1993-036BFF",
        "meta_epoch": "2025-12-02T23:36:37.668384",
        "meta_mean_motion": 15.39020756,
        "meta_eccentricity": 0.0022856,
        "meta_inclination": 73.9503,
        "meta_ra_of_asc_node": 237.2473,
        "meta_arg_of_pericenter": 76.375,
        "meta_mean_anomaly": 284,
        "meta_ephemeris_type": 0,
        "meta_classification_type": "U",
        "meta_norad_cat_id": 37085,
        "meta_element_set_no": 999,
        "meta_rev_at_epoch": 66987,
        "meta_bstar": 0.0028642077,
        "meta_mean_motion_dot": 0.00113322,
        "meta_mean_motion_ddot": 0,
        "tle_line1": "1 37085U 93036BFF 25336.98376931  .00113322  00000+0  28642-2 0  9994",
        "tle_line2": "2 37085  73.9503 237.2473 0022856  76.3750 284.0000 15.39020756669879"
      },
      "geometry": {
        "type": "Point",
        "coordinates": [
          -136.59333806816372,
          -27.925558389167723
        ]
      }
    }
  ]
}